TRANSPORTER-12 OBJECT AZ
1 62656U 25009AZ  26068.71026235  .00016057  00000+0  54903-3 0  9991
2 62656  97.3981 151.9913 0000987  45.3581 314.7740 15.30349724 63792
STARLINK-34320          
1 64217U 25117Q   26068.31041817  .00024513  00000+0  83722-3 0  9992
2 64217  53.1616  41.6498 0001319  84.6365 275.4786 15.30191900 44468
